[{"OBJECT_NAME":"STARLINK-33840","OBJECT_ID":"2025-085U","EPOCH":"2026-03-09T22:08:24.555552","MEAN_MOTION":15.27586233,"ECCENTRICITY":8.435e-5,"INCLINATION":43.001,"RA_OF_ASC_NODE":29.7618,"ARG_OF_PERICENTER":233.9741,"MEAN_ANOMALY":126.1032,"EPHEMERIS_TYPE":0,"CLASSIFICATION_TYPE":"U","NORAD_CAT_ID":63682,"ELEMENT_SET_NO":999,"REV_AT_EPOCH":4890,"BSTAR":0.000946989,"MEAN_MOTION_DOT":0.00025893,"MEAN_MOTION_DDOT":0},{"OBJECT_NAME":"CZ-6A DEB","OBJECT_ID":"2024-140AAN","EPOCH":"2026-03-09T15:08:07.195776","MEAN_MOTION":15.20547394,"ECCENTRICITY":0.0064261,"INCLINATION":89.3669,"RA_OF_ASC_NODE":306.3092,"ARG_OF_PERICENTER":93.6352,"MEAN_ANOMALY":267.2246,"EPHEMERIS_TYPE":0,"CLASSIFICATION_TYPE":"U","NORAD_CAT_ID":61480,"ELEMENT_SET_NO":999,"REV_AT_EPOCH":8198,"BSTAR":0.0033609,"MEAN_MOTION_DOT":0.00078405,"MEAN_MOTION_DDOT":0}]
